start=new Date('2023-05-05T00:00:00.000Z').valueOf();
sats=[{"ELEMENT_SET_NO":"999","EPHEMERIS_TYPE":"0","OBJECT_NAME":"STARLINK-4435","PERIOD":"95.919","RCS_SIZE":"LARGE","FILE":"3901186","CLASSIFICATION_TYPE":"U","SITE":"AFWTR","NORAD_CAT_ID":"53502","MEAN_MOTION":"15.01260267","BSTAR":"0.00016841000000","REF_FRAME":"TEME","SEMIMAJOR_AXIS":"6941.146","MEAN_MOTION_DOT":"0.00002105","MEAN_ANOMALY":"141.2140","DECAY_DATE":null,"ECCENTRICITY":"0.00045720","TLE_LINE1":"1 53502U 22099AP  23124.89882600  .00002105  00000-0  16841-3 0  9991","INCLINATION":"97.6568","GP_ID":"231273865","TIME_SYSTEM":"UTC","REV_AT_EPOCH":"3998","EPOCH":"2023-05-04T21:34:18.566400","PERIAPSIS":"559.838","MEAN_MOTION_DDOT":"0.0000000000000","OBJECT_TYPE":"PAYLOAD","RA_OF_ASC_NODE":"246.5927","COUNTRY_CODE":"US","LAUNCH_DATE":"2022-08-12","CENTER_NAME":"EARTH","OBJECT_ID":"2022-099AP","ARG_OF_PERICENTER":"218.8755","MEAN_ELEMENT_THEORY":"SGP4","APOAPSIS":"566.185","TLE_LINE2":"2 53502  97.6568 246.5927 0004572 218.8755 141.2140 15.01260267 39989"},{"MEAN_ELEMENT_THEORY":"SGP4","ARG_OF_PERICENTER":"208.4206","TLE_LINE2":"2 53503  97.6575 246.5954 0002840 208.4206 151.6863 15.01256013 39981","APOAPSIS":"564.995","MEAN_MOTION_DDOT":"0.0000000000000","OBJECT_TYPE":"PAYLOAD","RA_OF_ASC_NODE":"246.5954","INCLINATION":"97.6575","TLE_LINE1":"1 53503U 22099AQ  23124.89327620  .00001112  00000-0  91203-4 0  9991","ECCENTRICITY":"0.00028400","GP_ID":"231274116","REV_AT_EPOCH":"3998","TIME_SYSTEM":"UTC","EPOCH":"2023-05-04T21:26:19.063680","PERIAPSIS":"561.053","LAUNCH_DATE":"2022-08-12","CENTER_NAME":"EARTH","OBJECT_ID":"2022-099AQ","COUNTRY_CODE":"US","NORAD_CAT_ID":"53503","MEAN_MOTION":"15.01256013","BSTAR":"0.00009120300000","REF_FRAME":"TEME","MEAN_ANOMALY":"151.6863","DECAY_DATE":null,"SEMIMAJOR_AXIS":"6941.159","MEAN_MOTION_DOT":"0.00001112","RCS_SIZE":"LARGE","FILE":"3901186","ELEMENT_SET_NO":"999","EPHEMERIS_TYPE":"0","OBJECT_NAME":"STARLINK-4461","PERIOD":"95.920","SITE":"AFWTR","CLASSIFICATION_TYPE":"U"},{"MEAN_MOTION":"15.01260916","NORAD_CAT_ID":"53504","REF_FRAME":"TEME","BSTAR":"0.00014628000000","SEMIMAJOR_AXIS":"6941.144","MEAN_MOTION_DOT":"0.00001820","DECAY_DATE":null,"MEAN_ANOMALY":"143.8807","EPHEMERIS_TYPE":"0","ELEMENT_SET_NO":"999","PERIOD":"95.919","OBJECT_NAME":"STARLINK-4448","RCS_SIZE":"LARGE","FILE":"3901186","SITE":"AFWTR","CLASSIFICATION_TYPE":"U","ARG_OF_PERICENTER":"216.2124","MEAN_ELEMENT_THEORY":"SGP4","APOAPSIS":"566.019","TLE_LINE2":"2 53504  97.6582 246.5935 0004336 216.2124 143.8807 15.01260916 39985","GP_ID":"231272363","ECCENTRICITY":"0.00043360","TLE_LINE1":"1 53504U 22099AR  23124.89697418  .00001820  00000-0  14628-3 0  9998","INCLINATION":"97.6582","EPOCH":"2023-05-04T21:31:38.569152","PERIAPSIS":"559.999","TIME_SYSTEM":"UTC","REV_AT_EPOCH":"3998","MEAN_MOTION_DDOT":"0.0000000000000","RA_OF_ASC_NODE":"246.5935","OBJECT_TYPE":"PAYLOAD","COUNTRY_CODE":"US","LAUNCH_DATE":"2022-08-12","OBJECT_ID":"2022-099AR","CENTER_NAME":"EARTH"},{"COUNTRY_CODE":"US","LAUNCH_DATE":"2022-08-12","OBJECT_ID":"2022-099AS","CENTER_NAME":"EARTH","GP_ID":"231273115","TLE_LINE1":"1 53505U 22099AS  23124.88957025  .00002227  00000-0  17795-3 0  9991","ECCENTRICITY":"0.00022430","INCLINATION":"97.6567","PERIAPSIS":"561.457","EPOCH":"2023-05-04T21:20:58.869600","TIME_SYSTEM":"UTC","REV_AT_EPOCH":"3998","MEAN_MOTION_DDOT":"0.0000000000000","RA_OF_ASC_NODE":"246.5947","OBJECT_TYPE":"PAYLOAD","APOAPSIS":"564.570","TLE_LINE2":"2 53505  97.6567 246.5947 0002243 231.2719 128.8305 15.01259495 39980","ARG_OF_PERICENTER":"231.2719","MEAN_ELEMENT_THEORY":"SGP4","CLASSIFICATION_TYPE":"U","SITE":"AFWTR","EPHEMERIS_TYPE":"0","ELEMENT_SET_NO":"999","PERIOD":"95.919","OBJECT_NAME":"STARLINK-4446","RCS_SIZE":"MEDIUM","FILE":"3901186","SEMIMAJOR_AXIS":"6941.148","MEAN_MOTION_DOT":"0.00002227","DECAY_DATE":null,"MEAN_ANOMALY":"128.8305","MEAN_MOTION":"15.01259495","NORAD_CAT_ID":"53505","REF_FRAME":"TEME","BSTAR":"0.00017795000000"},{"SITE":"AFWTR","CLASSIFICATION_TYPE":"U","OBJECT_NAME":"STARLINK-4437","PERIOD":"95.919","ELEMENT_SET_NO":"999","EPHEMERIS_TYPE":"0","FILE":"3901186","RCS_SIZE":"LARGE","MEAN_MOTION_DOT":"0.00001739","SEMIMAJOR_AXIS":"6941.141","MEAN_ANOMALY":"136.9511","DECAY_DATE":null,"BSTAR":"0.00013998000000","REF_FRAME":"TEME","NORAD_CAT_ID":"53506","MEAN_MOTION":"15.01261790","COUNTRY_CODE":"US","CENTER_NAME":"EARTH","OBJECT_ID":"2022-099AT","LAUNCH_DATE":"2022-08-12","REV_AT_EPOCH":"3998","TIME_SYSTEM":"UTC","PERIAPSIS":"560.730","EPOCH":"2023-05-04T21:23:59.752320","INCLINATION":"97.6573","TLE_LINE1":"1 53506U 22099AT  23124.89166380  .00001739  00000-0  13998-3 0  9997","ECCENTRICITY":"0.00032800","GP_ID":"231273367","OBJECT_TYPE":"PAYLOAD","RA_OF_ASC_NODE":"246.5947","MEAN_MOTION_DDOT":"0.0000000000000","APOAPSIS":"565.283","TLE_LINE2":"2 53506  97.6573 246.5947 0003280 223.1457 136.9511 15.01261790 39989","ARG_OF_PERICENTER":"223.1457","MEAN_ELEMENT_THEORY":"SGP4"},{"NORAD_CAT_ID":"53507","MEAN_MOTION":"15.01264020","BSTAR":"0.00031489000000","REF_FRAME":"TEME","SEMIMAJOR_AXIS":"6941.134","MEAN_MOTION_DOT":"0.00003988","MEAN_ANOMALY":"144.1871","DECAY_DATE":null,"ELEMENT_SET_NO":"999","EPHEMERIS_TYPE":"0","OBJECT_NAME":"STARLINK-4444","PERIOD":"95.919","RCS_SIZE":"LARGE","FILE":"3901186","SITE":"AFWTR","CLASSIFICATION_TYPE":"U","ARG_OF_PERICENTER":"215.9202","MEAN_ELEMENT_THEORY":"SGP4","APOAPSIS":"564.565","TLE_LINE2":"2 53507  97.6562 246.5935 0002256 215.9202 144.1871 15.01264020 39983","ECCENTRICITY":"0.00022560","TLE_LINE1":"1 53507U 22099AU  23124.88772083  .00003988  00000-0  31489-3 0  9993","INCLINATION":"97.6562","GP_ID":"231273618","REV_AT_EPOCH":"3998","TIME_SYSTEM":"UTC","EPOCH":"2023-05-04T21:18:19.079712","PERIAPSIS":"561.434","MEAN_MOTION_DDOT":"0.0000000000000","OBJECT_TYPE":"PAYLOAD","RA_OF_ASC_NODE":"246.5935","COUNTRY_CODE":"US","LAUNCH_DATE":"2022-08-12","CENTER_NAME":"EARTH","OBJECT_ID":"2022-099AU"},{"ARG_OF_PERICENTER":"223.2335","MEAN_ELEMENT_THEORY":"SGP4","APOAPSIS":"565.256","TLE_LINE2":"2 53508  97.6566 246.5957 0003229 223.2335 136.8636 15.01259201 39984","REV_AT_EPOCH":"3998","TIME_SYSTEM":"UTC","EPOCH":"2023-05-04T21:23:38.928192","PERIAPSIS":"560.773","ECCENTRICITY":"0.00032290","TLE_LINE1":"1 53508U 22099AV  23124.89142278  .00001355  00000-0  11009-3 0  9994","INCLINATION":"97.6566","GP_ID":"231272863","OBJECT_TYPE":"PAYLOAD","RA_OF_ASC_NODE":"246.5957","MEAN_MOTION_DDOT":"0.0000000000000","COUNTRY_CODE":"US","CENTER_NAME":"EARTH","OBJECT_ID":"2022-099AV","LAUNCH_DATE":"2022-08-12","BSTAR":"0.00011009000000","REF_FRAME":"TEME","NORAD_CAT_ID":"53508","MEAN_MOTION":"15.01259201","MEAN_MOTION_DOT":"0.00001355","SEMIMAJOR_AXIS":"6941.149","MEAN_ANOMALY":"136.8636","DECAY_DATE":null,"OBJECT_NAME":"STARLINK-4443","PERIOD":"95.919","ELEMENT_SET_NO":"999","EPHEMERIS_TYPE":"0","FILE":"3901186","RCS_SIZE":"LARGE","CLASSIFICATION_TYPE":"U","SITE":"AFWTR"},{"DECAY_DATE":null,"MEAN_ANOMALY":"121.5944","SEMIMAJOR_AXIS":"6941.143","MEAN_MOTION_DOT":"0.00003389","MEAN_MOTION":"15.01261197","NORAD_CAT_ID":"53509","REF_FRAME":"TEME","BSTAR":"0.00026831000000","SITE":"AFWTR","CLASSIFICATION_TYPE":"U","RCS_SIZE":"LARGE","FILE":"3901186","EPHEMERIS_TYPE":"0","ELEMENT_SET_NO":"999","PERIOD":"95.919","OBJECT_NAME":"STARLINK-4402","TLE_LINE2":"2 53509  97.6565 246.5921 0001280 238.5156 121.5944 15.01261197 39980","APOAPSIS":"563.897","MEAN_ELEMENT_THEORY":"SGP4","ARG_OF_PERICENTER":"238.5156","LAUNCH_DATE":"2022-08-12","OBJECT_ID":"2022-099AW","CENTER_NAME":"EARTH","COUNTRY_CODE":"US","MEAN_MOTION_DDOT":"0.0000000000000","RA_OF_ASC_NODE":"246.5921","OBJECT_TYPE":"PAYLOAD","GP_ID":"231272616","INCLINATION":"97.6565","TLE_LINE1":"1 53509U 22099AW  23124.88426462  .00003389  00000-0  26831-3 0  9992","ECCENTRICITY":"0.00012800","PERIAPSIS":"562.120","EPOCH":"2023-05-04T21:13:20.463168","REV_AT_EPOCH":"3998","TIME_SYSTEM":"UTC"},{"MEAN_MOTION_DDOT":"0.0000000000000","RA_OF_ASC_NODE":"246.5929","OBJECT_TYPE":"PAYLOAD","GP_ID":"231273866","ECCENTRICITY":"0.00005730","TLE_LINE1":"1 53510U 22099AX  23124.88587452  .00004155  00000-0  32791-3 0  9995","INCLINATION":"97.6568","EPOCH":"2023-05-04T21:15:39.558528","PERIAPSIS":"562.626","REV_AT_EPOCH":"3998","TIME_SYSTEM":"UTC","LAUNCH_DATE":"2022-08-12","OBJECT_ID":"2022-099AX","CENTER_NAME":"EARTH","COUNTRY_CODE":"US","MEAN_ELEMENT_THEORY":"SGP4","ARG_OF_PERICENTER":"208.4820","TLE_LINE2":"2 53510  97.6568 246.5929 0000573 208.4820 151.6373 15.01256292 39981","APOAPSIS":"563.421","RCS_SIZE":"LARGE","FILE":"3901186","EPHEMERIS_TYPE":"0","ELEMENT_SET_NO":"999","PERIOD":"95.920","OBJECT_NAME":"STARLINK-4441","SITE":"AFWTR","CLASSIFICATION_TYPE":"U","MEAN_MOTION":"15.01256292","NORAD_CAT_ID":"53510","REF_FRAME":"TEME","BSTAR":"0.00032791000000","DECAY_DATE":null,"MEAN_ANOMALY":"151.6373","SEMIMAJOR_AXIS":"6941.158","MEAN_MOTION_DOT":"0.00004155"},{"ARG_OF_PERICENTER":"111.9454","MEAN_ELEMENT_THEORY":"SGP4","APOAPSIS":"540.632","TLE_LINE2":"2 53527  53.2199  65.0168 0001309 111.9454 248.1677 15.08846263 39085","REV_AT_EPOCH":"3908","TIME_SYSTEM":"UTC","PERIAPSIS":"538.821","EPOCH":"2023-05-04T05:03:14.009184","INCLINATION":"53.2199","TLE_LINE1":"1 53527U 22101A   23124.21057881  .00000406  00000-0  43586-4 0  9992","ECCENTRICITY":"0.00013090","GP_ID":"231240064","OBJECT_TYPE":"PAYLOAD","RA_OF_ASC_NODE":"65.0168","MEAN_MOTION_DDOT":"0.0000000000000","COUNTRY_CODE":"US","CENTER_NAME":"EARTH","OBJECT_ID":"2022-101A","LAUNCH_DATE":"2022-08-19","BSTAR":"0.00004358600000","REF_FRAME":"TEME","NORAD_CAT_ID":"53527","MEAN_MOTION":"15.08846263","MEAN_MOTION_DOT":"0.00000406","SEMIMAJOR_AXIS":"6917.861","MEAN_ANOMALY":"248.1677","DECAY_DATE":null,"OBJECT_NAME":"STARLINK-4511","PERIOD":"95.437","ELEMENT_SET_NO":"999","EPHEMERIS_TYPE":"0","FILE":"3900892","RCS_SIZE":"LARGE","SITE":"AFETR","CLASSIFICATION_TYPE":"U"}];
